"{\n    \"CCSDS_OMM_VERS\": \"2.0\",\n    \"COMMENT\": \"GENERATED VIA SPACE-TRACK.ORG API\",\n    \"CREATION_DATE\": \"2025-08-31T17:37:22\",\n    \"ORIGINATOR\": \"18 SPCS\",\n    \"OBJECT_NAME\": \"CYGFM04\",\n    \"OBJECT_ID\": \"2016-078B\",\n    \"CENTER_NAME\": \"EARTH\",\n    \"REF_FRAME\": \"TEME\",\n    \"TIME_SYSTEM\": \"UTC\",\n    \"MEAN_ELEMENT_THEORY\": \"SGP4\",\n    \"EPOCH\": \"2025-08-31T12:41:16.991232\",\n    \"MEAN_MOTION\": \"15.447638754\",\n    \"ECCENTRICITY\": \"0.00080887555\",\n    \"INCLINATION\": \"34.936413\",\n    \"RA_OF_ASC_NODE\": \"335.97143\",\n    \"ARG_OF_PERICENTER\": \"323.80442\",\n    \"MEAN_ANOMALY\": \"36.212819\",\n    \"EPHEMERIS_TYPE\": \"0\",\n    \"CLASSIFICATION_TYPE\": \"U\",\n    \"NORAD_CAT_ID\": \"41885\",\n    \"ELEMENT_SET_NO\": \"999\",\n    \"REV_AT_EPOCH\": \"48394\",\n    \"BSTAR\": \"0.00047551059\",\n    \"MEAN_MOTION_DOT\": \"0.00022954495\",\n    \"MEAN_MOTION_DDOT\": \"0\",\n    \"TLE_LINE0\": \"0 CYGFM04\",\n    \"TLE_LINE1\": \"1 41885U 16078B   25243.52866888  .00022954  00000-0  47551-3 0  9992\",\n    \"TLE_LINE2\": \"2 41885  34.9364 335.9714 0008089 323.8044  36.2128 15.44763875483948\",\n    \"SEMIMAJOR_AXIS\": \"6810.209\",\n    \"PERIOD\": \"93.218\",\n    \"APOAPSIS\": \"437.583\",\n    \"PERIAPSIS\": \"426.565\",\n    \"OBJECT_TYPE\": \"PAYLOAD\",\n    \"DECAYED\": \"0\"\n}"